[{"OBJECT_NAME":"STARLINK-3573","OBJECT_ID":"2022-017AC","EPOCH":"2026-03-09T02:20:12.730848","MEAN_MOTION":15.08836578,"ECCENTRICITY":0.0001122,"INCLINATION":53.219,"RA_OF_ASC_NODE":351.7778,"ARG_OF_PERICENTER":84.1826,"MEAN_ANOMALY":275.9294,"EPHEMERIS_TYPE":0,"CLASSIFICATION_TYPE":"U","NORAD_CAT_ID":51794,"ELEMENT_SET_NO":999,"REV_AT_EPOCH":22383,"BSTAR":2.0741975e-5,"MEAN_MOTION_DOT":4.2e-7,"MEAN_MOTION_DDOT":0},{"OBJECT_NAME":"SL-14 DEB","OBJECT_ID":"1989-080G","EPOCH":"2026-03-09T15:08:26.583936","MEAN_MOTION":13.18681492,"ECCENTRICITY":0.0881405,"INCLINATION":82.6856,"RA_OF_ASC_NODE":122.8071,"ARG_OF_PERICENTER":209.368,"MEAN_ANOMALY":145.5064,"EPHEMERIS_TYPE":0,"CLASSIFICATION_TYPE":"U","NORAD_CAT_ID":20308,"ELEMENT_SET_NO":999,"REV_AT_EPOCH":70613,"BSTAR":0.0010519,"MEAN_MOTION_DOT":3.505e-5,"MEAN_MOTION_DDOT":0}]
